USA 568                 
1 66551U 24134K   25336.66670139 -.01709685  00000+0 -74303-2 0  9990
2 66551  53.1571 236.7807 0000717 110.7411 313.9012 15.87051116  2624
GLOBAL-33               
1 66554U 25267A   25349.85895447  .00009732  00000+0  31965-3 0  9998
2 66554  42.0214  38.9876 0003734  88.3433 271.7833 15.31616377  3888
ELECTRON KICK STAGE R/B 
1 66555U 25267B   25349.84448910  .00019586  00000+0  60775-3 0  9996
2 66555  42.0200  38.8761 0006569  78.9259 281.2317 15.32969110  3886
STARLINK-35699          
1 66557U 25268A   25349.81401906  .00056245  00000+0  95715-3 0  9995
2 66557  42.9999 103.2197 0001540 283.5816  76.4873 15.50594269  5106
STARLINK-35695          
1 66558U 25268B   25349.68484148  .00055765  00000+0  94845-3 0  9999
2 66558  42.9942 103.9709 0003831 274.1620  85.8802 15.50607510  5082
STARLINK-35419          
1 66559U 25268C   25349.68450156  .00066922  00000+0  11362-2 0  9991
2 66559  42.9984 103.9678 0002600 269.6124  90.4439 15.50593296  5088
STARLINK-35411          
1 66560U 25268D   25349.74858450  .00053913  00000+0  91636-3 0  9998
2 66560  42.9998 103.5882 0002042 272.5318  87.5308 15.50643049  5091
STARLINK-35305          
1 66561U 25268E   25349.74787998  .00094487  00000+0  15983-2 0  9998
2 66561  42.9996 103.5840 0001379 275.7888  84.2815 15.50556187  5096
STARLINK-35579          
1 66562U 25268F   25349.61942236  .00066134  00000+0  11243-2 0  9996
2 66562  42.9992 104.3385 0001810 275.7942  84.2711 15.50561462  5072
STARLINK-35437          
1 66563U 25268G   25349.68311043  .00082577  00000+0  13972-2 0  9990
2 66563  42.9973 103.9570 0003520 294.6285  65.4208 15.50601833  5083
STARLINK-35358          
1 66564U 25268H   25349.68278716  .00063697  00000+0  10820-2 0  9991
2 66564  42.9981 103.9542 0002262 271.5199  88.5402 15.50598451  5085
STARLINK-35893          
1 66565U 25268J   25349.68244830  .00073723  00000+0  12504-2 0  9994
2 66565  42.9970 103.9514 0001207 305.8195  54.2553 15.50586099  5080
