CCSDS_OMM_VERS = 2.0
CREATION_DATE  = 
ORIGINATOR     = 

OBJECT_NAME    = USA 568
OBJECT_ID      = 2024-134K
CENTER_NAME    = EARTH
REF_FRAME      = TEME
TIME_SYSTEM    = UTC
MEAN_ELEMENT_THEORY = SGP/SGP4

EPOCH          = 2025-12-02T16:00:03.000096
MEAN_MOTION    = 15.87051116
ECCENTRICITY   = .0000717
INCLINATION    = 53.1571
RA_OF_ASC_NODE = 236.7807
ARG_OF_PERICENTER = 110.7411
MEAN_ANOMALY   = 313.9012

EPHEMERIS_TYPE = 0
CLASSIFICATION_TYPE = U
NORAD_CAT_ID   = 66551
ELEMENT_SET_NO = 999
REV_AT_EPOCH   = 262
BSTAR          = -.74303E-2
MEAN_MOTION_DOT = -.1709685E-1
MEAN_MOTION_DDOT = 0

CCSDS_OMM_VERS = 2.0
CREATION_DATE  = 
ORIGINATOR     = 

OBJECT_NAME    = GLOBAL-33
OBJECT_ID      = 2025-267A
CENTER_NAME    = EARTH
REF_FRAME      = TEME
TIME_SYSTEM    = UTC
MEAN_ELEMENT_THEORY = SGP/SGP4

EPOCH          = 2025-12-15T20:36:53.666208
MEAN_MOTION    = 15.31616377
ECCENTRICITY   = .00037341
INCLINATION    = 42.0214
RA_OF_ASC_NODE = 38.9876
ARG_OF_PERICENTER = 88.3433
MEAN_ANOMALY   = 271.7833

EPHEMERIS_TYPE = 0
CLASSIFICATION_TYPE = U
NORAD_CAT_ID   = 66554
ELEMENT_SET_NO = 999
REV_AT_EPOCH   = 388
BSTAR          = .31965408E-3
MEAN_MOTION_DOT = .9732E-4
MEAN_MOTION_DDOT = 0

CCSDS_OMM_VERS = 2.0
CREATION_DATE  = 
ORIGINATOR     = 

OBJECT_NAME    = ELECTRON KICK STAGE R/B
OBJECT_ID      = 2025-267B
CENTER_NAME    = EARTH
REF_FRAME      = TEME
TIME_SYSTEM    = UTC
MEAN_ELEMENT_THEORY = SGP/SGP4

EPOCH          = 2025-12-15T20:16:03.858240
MEAN_MOTION    = 15.32969110
ECCENTRICITY   = .00065691
INCLINATION    = 42.0200
RA_OF_ASC_NODE = 38.8761
ARG_OF_PERICENTER = 78.9259
MEAN_ANOMALY   = 281.2317

EPHEMERIS_TYPE = 0
CLASSIFICATION_TYPE = U
NORAD_CAT_ID   = 66555
ELEMENT_SET_NO = 999
REV_AT_EPOCH   = 388
BSTAR          = .60774883E-3
MEAN_MOTION_DOT = .19586E-3
MEAN_MOTION_DDOT = 0

CCSDS_OMM_VERS = 2.0
CREATION_DATE  = 
ORIGINATOR     = 

OBJECT_NAME    = STARLINK-35699
OBJECT_ID      = 2025-268A
CENTER_NAME    = EARTH
REF_FRAME      = TEME
TIME_SYSTEM    = UTC
MEAN_ELEMENT_THEORY = SGP/SGP4

EPOCH          = 2025-12-15T19:32:11.246784
MEAN_MOTION    = 15.50594269
ECCENTRICITY   = .000154
INCLINATION    = 42.9999
RA_OF_ASC_NODE = 103.2197
ARG_OF_PERICENTER = 283.5816
MEAN_ANOMALY   = 76.4873

EPHEMERIS_TYPE = 0
CLASSIFICATION_TYPE = U
NORAD_CAT_ID   = 66557
ELEMENT_SET_NO = 999
REV_AT_EPOCH   = 510
BSTAR          = .95715171E-3
MEAN_MOTION_DOT = .56245E-3
MEAN_MOTION_DDOT = 0

CCSDS_OMM_VERS = 2.0
CREATION_DATE  = 
ORIGINATOR     = 

OBJECT_NAME    = STARLINK-35695
OBJECT_ID      = 2025-268B
CENTER_NAME    = EARTH
REF_FRAME      = TEME
TIME_SYSTEM    = UTC
MEAN_ELEMENT_THEORY = SGP/SGP4

EPOCH          = 2025-12-15T16:26:10.303872
MEAN_MOTION    = 15.50607510
ECCENTRICITY   = .00038316
INCLINATION    = 42.9942
RA_OF_ASC_NODE = 103.9709
ARG_OF_PERICENTER = 274.1620
MEAN_ANOMALY   = 85.8802

EPHEMERIS_TYPE = 0
CLASSIFICATION_TYPE = U
NORAD_CAT_ID   = 66558
ELEMENT_SET_NO = 999
REV_AT_EPOCH   = 508
BSTAR          = .948449E-3
MEAN_MOTION_DOT = .55765E-3
MEAN_MOTION_DDOT = 0

CCSDS_OMM_VERS = 2.0
CREATION_DATE  = 
ORIGINATOR     = 

OBJECT_NAME    = STARLINK-35419
OBJECT_ID      = 2025-268C
CENTER_NAME    = EARTH
REF_FRAME      = TEME
TIME_SYSTEM    = UTC
MEAN_ELEMENT_THEORY = SGP/SGP4

EPOCH          = 2025-12-15T16:25:40.934784
MEAN_MOTION    = 15.50593296
ECCENTRICITY   = .00026
INCLINATION    = 42.9984
RA_OF_ASC_NODE = 103.9678
ARG_OF_PERICENTER = 269.6124
MEAN_ANOMALY   = 90.4439

EPHEMERIS_TYPE = 0
CLASSIFICATION_TYPE = U
NORAD_CAT_ID   = 66559
ELEMENT_SET_NO = 999
REV_AT_EPOCH   = 508
BSTAR          = .11361626E-2
MEAN_MOTION_DOT = .66922E-3
MEAN_MOTION_DDOT = 0

CCSDS_OMM_VERS = 2.0
CREATION_DATE  = 
ORIGINATOR     = 

OBJECT_NAME    = STARLINK-35411
OBJECT_ID      = 2025-268D
CENTER_NAME    = EARTH
REF_FRAME      = TEME
TIME_SYSTEM    = UTC
MEAN_ELEMENT_THEORY = SGP/SGP4

EPOCH          = 2025-12-15T17:57:57.700800
MEAN_MOTION    = 15.50643049
ECCENTRICITY   = .0002042
INCLINATION    = 42.9998
RA_OF_ASC_NODE = 103.5882
ARG_OF_PERICENTER = 272.5318
MEAN_ANOMALY   = 87.5308

EPHEMERIS_TYPE = 0
CLASSIFICATION_TYPE = U
NORAD_CAT_ID   = 66560
ELEMENT_SET_NO = 999
REV_AT_EPOCH   = 509
BSTAR          = .91635961E-3
MEAN_MOTION_DOT = .53913E-3
MEAN_MOTION_DDOT = 0

CCSDS_OMM_VERS = 2.0
CREATION_DATE  = 
ORIGINATOR     = 

OBJECT_NAME    = STARLINK-35305
OBJECT_ID      = 2025-268E
CENTER_NAME    = EARTH
REF_FRAME      = TEME
TIME_SYSTEM    = UTC
MEAN_ELEMENT_THEORY = SGP/SGP4

EPOCH          = 2025-12-15T17:56:56.830272
MEAN_MOTION    = 15.50556187
ECCENTRICITY   = .00013798
INCLINATION    = 42.9996
RA_OF_ASC_NODE = 103.5840
ARG_OF_PERICENTER = 275.7888
MEAN_ANOMALY   = 84.2815

EPHEMERIS_TYPE = 0
CLASSIFICATION_TYPE = U
NORAD_CAT_ID   = 66561
ELEMENT_SET_NO = 999
REV_AT_EPOCH   = 509
BSTAR          = .15983264E-2
MEAN_MOTION_DOT = .94487E-3
MEAN_MOTION_DDOT = 0

CCSDS_OMM_VERS = 2.0
CREATION_DATE  = 
ORIGINATOR     = 

OBJECT_NAME    = STARLINK-35579
OBJECT_ID      = 2025-268F
CENTER_NAME    = EARTH
REF_FRAME      = TEME
TIME_SYSTEM    = UTC
MEAN_ELEMENT_THEORY = SGP/SGP4

EPOCH          = 2025-12-15T14:51:58.091904
MEAN_MOTION    = 15.50561462
ECCENTRICITY   = .00018101
INCLINATION    = 42.9992
RA_OF_ASC_NODE = 104.3385
ARG_OF_PERICENTER = 275.7942
MEAN_ANOMALY   = 84.2711

EPHEMERIS_TYPE = 0
CLASSIFICATION_TYPE = U
NORAD_CAT_ID   = 66562
ELEMENT_SET_NO = 999
REV_AT_EPOCH   = 507
BSTAR          = .11242939E-2
MEAN_MOTION_DOT = .66134E-3
MEAN_MOTION_DDOT = 0

CCSDS_OMM_VERS = 2.0
CREATION_DATE  = 
ORIGINATOR     = 

OBJECT_NAME    = STARLINK-35437
OBJECT_ID      = 2025-268G
CENTER_NAME    = EARTH
REF_FRAME      = TEME
TIME_SYSTEM    = UTC
MEAN_ELEMENT_THEORY = SGP/SGP4

EPOCH          = 2025-12-15T16:23:40.741152
MEAN_MOTION    = 15.50601833
ECCENTRICITY   = .00035208
INCLINATION    = 42.9973
RA_OF_ASC_NODE = 103.9570
ARG_OF_PERICENTER = 294.6285
MEAN_ANOMALY   = 65.4208

EPHEMERIS_TYPE = 0
CLASSIFICATION_TYPE = U
NORAD_CAT_ID   = 66563
ELEMENT_SET_NO = 999
REV_AT_EPOCH   = 508
BSTAR          = .13972444E-2
MEAN_MOTION_DOT = .82577E-3
MEAN_MOTION_DDOT = 0

CCSDS_OMM_VERS = 2.0
CREATION_DATE  = 
ORIGINATOR     = 

OBJECT_NAME    = STARLINK-35358
OBJECT_ID      = 2025-268H
CENTER_NAME    = EARTH
REF_FRAME      = TEME
TIME_SYSTEM    = UTC
MEAN_ELEMENT_THEORY = SGP/SGP4

EPOCH          = 2025-12-15T16:23:12.810624
MEAN_MOTION    = 15.50598451
ECCENTRICITY   = .00022623
INCLINATION    = 42.9981
RA_OF_ASC_NODE = 103.9542
ARG_OF_PERICENTER = 271.5199
MEAN_ANOMALY   = 88.5402

EPHEMERIS_TYPE = 0
CLASSIFICATION_TYPE = U
NORAD_CAT_ID   = 66564
ELEMENT_SET_NO = 999
REV_AT_EPOCH   = 508
BSTAR          = .10819585E-2
MEAN_MOTION_DOT = .63697E-3
MEAN_MOTION_DDOT = 0

CCSDS_OMM_VERS = 2.0
CREATION_DATE  = 
ORIGINATOR     = 

OBJECT_NAME    = STARLINK-35893
OBJECT_ID      = 2025-268J
CENTER_NAME    = EARTH
REF_FRAME      = TEME
TIME_SYSTEM    = UTC
MEAN_ELEMENT_THEORY = SGP/SGP4

EPOCH          = 2025-12-15T16:22:43.533120
MEAN_MOTION    = 15.50586099
ECCENTRICITY   = .00012075
INCLINATION    = 42.9970
RA_OF_ASC_NODE = 103.9514
ARG_OF_PERICENTER = 305.8195
MEAN_ANOMALY   = 54.2553

EPHEMERIS_TYPE = 0
CLASSIFICATION_TYPE = U
NORAD_CAT_ID   = 66565
ELEMENT_SET_NO = 999
REV_AT_EPOCH   = 508
BSTAR          = .12503508E-2
MEAN_MOTION_DOT = .73723E-3
MEAN_MOTION_DDOT = 0

